[{"OBJECT_NAME":"STARLINK-4287","OBJECT_ID":"2022-076AL","EPOCH":"2026-03-09T08:37:07.006368","MEAN_MOTION":15.08837351,"ECCENTRICITY":0.00013237,"INCLINATION":53.217,"RA_OF_ASC_NODE":85.6033,"ARG_OF_PERICENTER":92.0311,"MEAN_ANOMALY":268.0833,"EPHEMERIS_TYPE":0,"CLASSIFICATION_TYPE":"U","NORAD_CAT_ID":53020,"ELEMENT_SET_NO":999,"REV_AT_EPOCH":20293,"BSTAR":3.3000529e-5,"MEAN_MOTION_DOT":2.37e-6,"MEAN_MOTION_DDOT":0},{"OBJECT_NAME":"CZ-4B DEB","OBJECT_ID":"2008-053L","EPOCH":"2026-03-08T19:52:33.417984","MEAN_MOTION":15.09778257,"ECCENTRICITY":0.00077037,"INCLINATION":97.7892,"RA_OF_ASC_NODE":87.441,"ARG_OF_PERICENTER":237.5543,"MEAN_ANOMALY":122.4941,"EPHEMERIS_TYPE":0,"CLASSIFICATION_TYPE":"U","NORAD_CAT_ID":36290,"ELEMENT_SET_NO":999,"REV_AT_EPOCH":71411,"BSTAR":0.00021001,"MEAN_MOTION_DOT":3.326e-5,"MEAN_MOTION_DDOT":0}]
